{
    "CCSDS_OMM_VERS": "3.0",
    "COMMENT": "GENERATED VIA SPACE-TRACK.ORG API",
    "CREATION_DATE": "2025-11-22T18:56:57",
    "ORIGINATOR": "18 SPCS",
    "OBJECT_NAME": "NAVSTAR 82 (USA 343)",
    "OBJECT_ID": "2023-009A",
    "CENTER_NAME": "EARTH",
    "REF_FRAME": "TEME",
    "TIME_SYSTEM": "UTC",
    "MEAN_ELEMENT_THEORY": "SGP4",
    "EPOCH": "2025-11-21T07:13:38.713728",
    "MEAN_MOTION": "2.00557626",
    "ECCENTRICITY": "0.00037517",
    "INCLINATION": "55.1046",
    "RA_OF_ASC_NODE": "156.6879",
    "ARG_OF_PERICENTER": "358.8842",
    "MEAN_ANOMALY": "185.0588",
    "EPHEMERIS_TYPE": "0",
    "CLASSIFICATION_TYPE": "U",
    "NORAD_CAT_ID": "55268",
    "ELEMENT_SET_NO": "999",
    "REV_AT_EPOCH": "2107",
    "BSTAR": "0.00000000000000",
    "MEAN_MOTION_DOT": "0.00000078",
    "MEAN_MOTION_DDOT": "0.0000000000000",
    "SEMIMAJOR_AXIS": "26560.876",
    "PERIOD": "717.998",
    "APOAPSIS": "20192.705",
    "PERIAPSIS": "20172.776",
    "OBJECT_TYPE": "PAYLOAD",
    "RCS_SIZE": "LARGE",
    "COUNTRY_CODE": "US",
    "LAUNCH_DATE": "2023-01-18",
    "SITE": "AFETR",
    "DECAY_DATE": null,
    "FILE": "4894246",
    "GP_ID": "303259436",
    "TLE_LINE0": "0 NAVSTAR 82 (USA 343)",
    "TLE_LINE1": "1 55268U 23009A   25325.30114252  .00000078  00000-0  00000-0 0  9990",
    "TLE_LINE2": "2 55268  55.1046 156.6879 0003752 358.8842 185.0588  2.00557626 21074"
}